STARLETTE               
1 07646U 75010A   12352.53120398 -.00000313  00000-0 -13299-3 0  1145
2 07646  49.8249 121.6913 0205631 338.6498  20.5910 13.82282015912643
LAGEOS 1                
1 08820U 76039A   12353.21020478  .00000005  00000-0  10000-3 0  3927
2 08820 109.8583 290.8852 0044928 277.6466  81.8952  6.38664814598789
AJISAI (EGS)            
1 16908U 86061A   12352.86556407 -.00000083  00000-0  10000-3 0    20
2 16908  50.0063 184.3664 0011221 232.5802 127.4007 12.44471918866946
LAGEOS 2                
1 22195U 92070B   12353.16460404 -.00000009  00000-0  10000-3 0  6201
2 22195  52.6375 141.8871 0137250 192.1308 167.5920  6.47294679476530
STELLA                  
1 22824U 93061B   12352.68540993  .00001068  00000-0  45389-3 0  3546
2 22824  98.6215 288.2089 0007061 145.8158 214.3552 14.27314462  1708
WESTPAC                 
1 25398U 98043E   12351.98963330 -.00000028  00000-0  57963-5 0  5806
2 25398  98.3956 320.4499 0002320  85.5978 274.5460 14.22724242749849
GRACE-1                 
1 27391U 02012A   12353.12423435  .00004833  00000-0  11486-3 0  2674
2 27391  89.0191 191.0054 0014720 141.5809 218.6425 15.41316870601825
GRACE-2                 
1 27392U 02012B   12352.73430176  .00004921  00000-0  11695-3 0  2693
2 27392  89.0168 191.0850 0015344 146.0171 214.2100 15.41312318601767
GOCE                    
1 34602U 09013A   12353.12129574  .00002001  19133-5  25321-5 0  3147
2 34602  96.5826  15.4411 0006499 140.1703 220.0059 16.11511486220054
LARES                   
1 38077U 12006A   12353.18109645 -.00000022  00000-0  10000-3 0  8383
2 38077  69.4914  71.4446 0008312   0.8689 359.2349 12.54929916 38757
